#aV2022  2 20  0  0  0.00000000     288 DD+AD WGS84 FIT  NGA
## 2198      0.00000000   300.00000000 59630 0.0000000000000
+   32     1  2  3  4  5  6  7  8  9 10 11 12 13 14 15 16 17
+         18 19 20 21 22 23 24 25 26 27 28 29 30 31 32  0  0
+          0  0  0  0  0  0  0  0  0  0  0  0  0  0  0  0  0
+          0  0  0  0  0  0  0  0  0  0  0  0  0  0  0  0  0
+          0  0  0  0  0  0  0  0  0  0  0  0  0  0  0  0  0
++         2  2  2  2  2  2  2  2  2  2  2  2  2  2  2  2  2
++         2  2  2  2  2  2  2  2  2  2  2  2  2  2  2  0  0
++         0  0  0  0  0  0  0  0  0  0  0  0  0  0  0  0  0
++         0  0  0  0  0  0  0  0  0  0  0  0  0  0  0  0  0
++         0  0  0  0  0  0  0  0  0  0  0  0  0  0  0  0  0
%c cc cc ccc ccc cccc cccc cccc cccc ccccc ccccc ccccc ccccc
%c cc cc ccc ccc cccc cccc cccc cccc ccccc ccccc ccccc ccccc
%f  0.0000000  0.000000000  0.00000000000  0.000000000000000
%f  0.0000000  0.000000000  0.00000000000  0.000000000000000
%i    0    0    0    0      0      0      0      0         0
%i    0    0    0    0      0      0      0      0         0
/*      NGA, ST. LOUIS,MO.                                  
/*   EPHEMERIS COMPUTED FROM 2 DAYS OF DATA                 
/*   EPOCHA v7 SMOOTHER                                     
/*   G2139 IERS2010 SATIGS SATAPC                           
*  2022  2 20 17 15  0.00000000
P  1  -1634.190044 -14821.169580 -22236.297403    426.660605                    
V  1  26527.806129  -7295.144239   3288.701333     -0.094126                    
P  2 -18820.106535  15606.439287  11195.678649   -651.199874                    
V  2 -13027.388852   2848.382342 -27384.781964     -0.006444                    
P  3 -10083.805874 -21244.101459 -12554.937780   -130.273845                    
V  3  12752.458363   9384.187034 -26229.438173     -0.175285                    
P  4   -603.518796 -24532.757549  10060.174735   -188.383194                    
V  4   5811.208930 -11678.025466 -28222.606658      0.023288                    
P  5  -4778.996590  15320.184757  20977.073131    -72.110490                    
V  5 -20947.124501 -17123.913312   7822.197845     -0.013224                    
P  6 -25832.053263   5154.742852  -3641.782752    207.677564                    
V  6   3947.745580  -3181.026493 -31818.785080      0.120725                    
P  7 -18157.343188  -8182.156149  18187.121539    311.636266                    
V  7  20889.546037  -7575.413474  17335.186766      0.026036                    
P  8   5862.667188 -25702.368719    506.281568    -56.939346                    
V  8   2782.984438   1292.032447  32070.072599     -0.014916                    
P  9  -9339.687983 -17085.687065  17979.179731   -353.318796                    
V  9   6529.528950 -22121.772615 -17593.185914      0.017179                    
P 10  21854.584463   8999.525805 -12264.063882   -325.865216                    
V 10  10165.730344  12071.376446  26377.548310     -0.106573                    
P 11 -20976.751657  12522.949684  10406.466550    -82.786244                    
V 11 -13427.445930    710.096761 -27925.284654      0.117759                    
P 12   5960.122376  21466.356860 -14825.745597   -173.936554                    
V 12 -13646.352073 -12299.358569 -23590.266469     -0.057107                    
P 13 -13196.648289  21960.292725   6521.823140    264.883333                    
V 13    609.655010  -8880.039203  30579.767709      0.062232                    
P 14 -21602.317749 -10018.287353 -11842.509450    -86.125574                    
V 14  -8727.318558 -12477.897942  26418.043471     -0.043498                    
P 15  -2402.470454  26274.567214   -538.410340    -82.349148                    
V 15  -4056.987549   -214.373424  31263.520972      0.029021                    
P 16   9758.234351 -11351.862691  21644.948048   -471.894863                    
V 16  18985.721050  20766.664745   2756.948162     -0.047769                    
P 17 -14689.127539  -1562.986390 -21645.666794    577.642646                    
V 17   7992.474503 -27324.480994  -3337.916673      0.049934                    
P 18  17913.508569   7807.223449  18032.527694    236.019908                    
V 18 -21627.086386   7469.461994  18148.450488     -0.082106                    
P 19 -16507.618571   6467.915415 -19977.090362    121.482989                    
V 19   7267.964514 -23738.299154 -14051.612698      0.049961                    
P 20 -13457.306961   9234.855153  20914.613370    516.616902                    
V 20 -21508.694693 -15799.621521  -7109.133683     -0.001607                    
P 21   8910.542471 -16743.713940 -17646.153862    158.348361                    
V 21  23161.838295  -6707.854938  18033.929903      0.006020                    
P 22  16351.348771 -10294.709013 -17741.224015    216.490942                    
V 22  -5510.121533  22815.477632 -18097.391978      0.057153                    
P 23  20737.630684  16551.089800  -2071.792667     -0.434787                    
V 23    271.210300   3618.203442  31693.024244     -0.034494                    
P 24  -2161.245609  17046.120124 -20454.468084    273.448053                    
V 24 -24256.344567   8021.706968   9797.140738     -0.022583                    
P 25  16852.548337  20242.279895  -4734.505580    288.255323                    
V 25  -5871.406367  -1930.666547 -30745.669562      0.053401                    
P 26  18949.946294  -1784.440769  18563.229557    184.857496                    
V 26  17055.522140  16550.976367 -15440.590488      0.031750                    
P 27  12323.524370 -20595.590441  10727.824169    127.137127                    
V 27   -820.035449  14225.890631  28129.974346      0.154682                    
P 28 -19016.716683  -3275.634620 -17628.956032    396.279974                    
V 28 -14219.679874 -18789.639762  18517.085133     -0.082956                    
P 29   5789.359575  19461.699225  17047.250219   -482.589904                    
V 29  -7876.518702  20276.354034 -20471.128908     -0.047061                    
P 30 -23987.338263  -2099.790148  11545.981698   -514.544913                    
V 30  13213.023325  -6652.575038  26157.522163     -0.022832                    
P 31  26061.535600  -6217.057451  -1301.315944   -165.620391                    
V 31   -741.142498   2891.330521 -31264.951431     -0.017652                    
P 32  15819.364281  -3296.576111 -20917.348261    -71.186103                    
V 32  -5142.100407  26421.103571  -8189.113514     -0.068686                    
EOF
